{
  "fetched_at": "2026-05-01T20:42:36.294518+00:00",
  "satellites": {
    "57166": {
      "name": "Meteor M2-3",
      "tle_line1": "1 57166U 23091A   26121.51451064  .00000016  00000+0  25642-4 0  9997",
      "tle_line2": "2 57166  98.6117 177.4391 0003013 319.1140  40.9813 14.24042718147872"
    },
    "59051": {
      "name": "Meteor M2-4",
      "tle_line1": "1 59051U 24039A   26121.54659664  .00000020  00000+0  28540-4 0  9999",
      "tle_line2": "2 59051  98.6987  81.4399 0006216 311.9671  48.0977 14.22424587112633"
    },
    "38771": {
      "name": "MetOp-B",
      "tle_line1": "1 38771U 12049A   26121.44961834  .00000121  00000+0  75250-4 0  9999",
      "tle_line2": "2 38771  98.6542 173.8727 0003518 114.2634 245.8912 14.21434738706624"
    },
    "43689": {
      "name": "MetOp-C",
      "tle_line1": "1 43689U 18087A   26119.57089331  .00000115  00000+0  72486-4 0  9996",
      "tle_line2": "2 43689  98.6676 180.0552 0000665  39.0689 321.0536 14.21512722387923"
    }
  }
}